NORAD_CAT_ID,OBJECT_NAME,OBJECT_TYPE,EPOCH,MEAN_MOTION,ECCENTRICITY,INCLINATION,RA_OF_ASC_NODE,ARG_OF_PERICENTER,MEAN_ANOMALY,BSTAR,MEAN_MOTION_DOT,MEAN_MOTION_DDOT,TLE_LINE0,TLE_LINE1,TLE_LINE2,SEMIMAJOR_AXIS,PERIOD,APOGEE,PERIGEE,DECAYED
51743.0,STARLINK-3512,PAYLOAD,2023-05-26 13:03:30,15.08846863,7.91e-05,53.2163,199.765,70.2719,289.8359,6.6838e-05,7.76e-06,0.0,0 STARLINK-3512,1 51743U 22016AF  23146.54409950  .00000776  00000-0  66838-4 0  9998,2 51743  53.2163 199.7650 0000791  70.2719 289.8359 15.08846863 69998,6917.859,95.437,540.272,539.177,0.0
51743.0,STARLINK-3512,PAYLOAD,2023-05-27 09:43:32,15.08828551,7.1e-05,53.2153,195.8989,67.7701,292.3367,-7.2178e-05,-1.436e-05,0.0,0 STARLINK-3512,1 51743U 22016AF  23147.40523450 -.00001436  00000-0 -72178-4 0  9996,2 51743  53.2153 195.8989 0000710  67.7701 292.3367 15.08828551 71256,6917.915,95.438,540.272,539.289,0.0
51743.0,STARLINK-3512,PAYLOAD,2023-05-27 12:54:18,15.08826887,7.02e-05,53.2153,195.3045,68.7079,291.3988,-8.5985e-05,-1.655e-05,0.0,0 STARLINK-3512,1 51743U 22016AF  23147.53771674 -.00001655  00000-0 -85985-4 0  9996,2 51743  53.2153 195.3045 0000702  68.7079 291.3988 15.08826887 70149,6917.92,95.438,540.271,539.3,0.0
51743.0,STARLINK-3512,PAYLOAD,2023-05-28 06:23:33,15.08832497,7.18e-05,53.2152,192.0333,68.1081,291.9988,-5.7213e-05,-1.198e-05,0.0,0 STARLINK-3512,1 51743U 22016AF  23148.26635672 -.00001198  00000-0 -57213-4 0  9999,2 51743  53.2152 192.0333 0000718  68.1081 291.9988 15.08832497 70258,6917.903,95.438,540.265,539.272,0.0
51743.0,STARLINK-3512,PAYLOAD,2023-05-28 09:34:19,15.08833265,7.31e-05,53.2151,191.4386,68.2709,291.836,-4.8434e-05,-1.058e-05,0.0,0 STARLINK-3512,1 51743U 22016AF  23148.39883643 -.00001058  00000-0 -48434-4 0  9996,2 51743  53.2151 191.4386 0000731  68.2709 291.8360 15.08833265 71406,6917.901,95.438,540.272,539.26,0.0
51743.0,STARLINK-3512,PAYLOAD,2023-05-28 12:45:05,15.08834677,7.2e-05,53.215,190.8435,68.785,291.3219,-3.6228e-05,-8.64e-06,0.0,0 STARLINK-3512,1 51743U 22016AF  23148.53131565 -.00000864  00000-0 -36228-4 0  9993,2 51743  53.2150 190.8435 0000720  68.7850 291.3219 15.08834677 70295,6917.897,95.438,540.26,539.264,0.0
51743.0,STARLINK-3512,PAYLOAD,2023-05-29 09:25:06,15.08836203,7.01e-05,53.2152,186.9781,74.8186,285.2884,0.00012704,1.735e-05,0.0,0 STARLINK-3512,1 51743U 22016AF  23149.39243198  .00001735  00000-0  12704-3 0  9992,2 51743  53.2152 186.9781 0000701  74.8186 285.2884 15.08836203 71553,6917.892,95.438,540.242,539.272,0.0
51743.0,STARLINK-3512,PAYLOAD,2023-05-29 18:57:24,15.08836521,7.14e-05,53.2152,185.1936,71.1637,288.9433,0.00015128,2.121e-05,0.0,0 STARLINK-3512,1 51743U 22016AF  23149.78987213  .00002121  00000-0  15128-3 0  9991,2 51743  53.2152 185.1936 0000714  71.1637 288.9433 15.08836521 70485,6917.891,95.438,540.25,539.262,0.0
51743.0,STARLINK-3512,PAYLOAD,2023-05-30 07:40:29,15.08842727,7.03e-05,53.215,182.8142,68.9418,291.1649,0.00014903,2.085e-05,0.0,0 STARLINK-3512,1 51743U 22016AF  23150.31978901  .00002085  00000-0  14903-3 0  9995,2 51743  53.2150 182.8142 0000703  68.9418 291.1649 15.08842727 70564,6917.872,95.437,540.223,539.251,0.0
51743.0,STARLINK-3512,PAYLOAD,2023-05-31 07:31:16,15.08843702,7.26e-05,53.215,178.3535,65.8509,294.2559,2.1713e-05,5.8e-07,0.0,0 STARLINK-3512,1 51743U 22016AF  23151.31339072  .00000058  00000-0  21713-4 0  9992,2 51743  53.2150 178.3535 0000726  65.8509 294.2559 15.08843702 71842,6917.869,95.437,540.236,539.232,0.0
51743.0,STARLINK-3512,PAYLOAD,2023-05-31 12:17:26,15.08844263,7.36e-05,53.215,177.4613,65.3592,294.7477,2.4102e-05,9.6e-07,0.0,0 STARLINK-3512,1 51743U 22016AF  23151.51210967  .00000096  00000-0  24102-4 0  9992,2 51743  53.2150 177.4613 0000736  65.3592 294.7477 15.08844263 70742,6917.867,95.437,540.242,539.223,0.0
51743.0,STARLINK-3512,PAYLOAD,2023-05-31 21:49:45,15.0884201,7.72e-05,53.2149,175.6768,67.4541,292.6533,-1.686e-05,-5.56e-06,0.0,0 STARLINK-3512,1 51743U 22016AF  23151.90955139 -.00000556  00000-0 -16860-4 0  9997,2 51743  53.2149 175.6768 0000772  67.4541 292.6533 15.08842010 70803,6917.874,95.437,540.273,539.205,0.0
51743.0,STARLINK-3512,PAYLOAD,2023-06-01 08:57:27,15.08842349,7.97e-05,53.2148,173.595,65.4636,294.6439,-1.9141e-05,-5.92e-06,0.0,0 STARLINK-3512,1 51743U 22016AF  23152.37323033 -.00000592  00000-0 -19141-4 0  9996,2 51743  53.2148 173.5950 0000797  65.4636 294.6439 15.08842349 70871,6917.873,95.437,540.29,539.187,0.0
51743.0,STARLINK-3512,PAYLOAD,2023-06-02 08:48:13,15.08840856,8.14e-05,53.2151,169.1346,68.2444,291.8635,3.7949e-05,3.16e-06,0.0,0 STARLINK-3512,1 51743U 22016AF  23153.36682822  .00000316  00000-0  37949-4 0  9998,2 51743  53.2151 169.1346 0000814  68.2444 291.8635 15.08840856 71029,6917.878,95.438,540.306,539.18,0.0
51743.0,STARLINK-3512,PAYLOAD,2023-06-02 18:20:32,15.08840411,8.21e-05,53.2152,167.3506,67.1787,292.9292,4.1022e-05,3.65e-06,0.0,0 STARLINK-3512,1 51743U 22016AF  23153.76426847  .00000365  00000-0  41022-4 0  9996,2 51743  53.2152 167.3506 0000821  67.1787 292.9292 15.08840411 72214,6917.879,95.438,540.312,539.176,0.0
51743.0,STARLINK-3512,PAYLOAD,2023-06-03 10:14:24,15.08840465,7.88e-05,53.215,164.3769,66.893,293.2145,3.5422e-05,2.76e-06,0.0,0 STARLINK-3512,1 51743U 22016AF  23154.42666868  .00000276  00000-0  35422-4 0  9997,2 51743  53.2150 164.3769 0000788  66.8930 293.2145 15.08840465 71183,6917.879,95.438,540.289,539.199,0.0
51743.0,STARLINK-3512,PAYLOAD,2023-06-03 18:11:19,15.08839282,7.94e-05,53.2149,162.8899,66.0433,294.0642,2.4817e-05,1.07e-06,0.0,0 STARLINK-3512,1 51743U 22016AF  23154.75786947  .00000107  00000-0  24817-4 0  9993,2 51743  53.2149 162.8899 0000794  66.0433 294.0642 15.08839282 71237,6917.883,95.438,540.297,539.198,0.0
51743.0,STARLINK-3512,PAYLOAD,2023-06-04 00:32:52,15.08837524,8.13e-05,53.2151,161.7007,65.2517,294.856,1.6135e-05,-3.1e-07,0.0,0 STARLINK-3512,1 51743U 22016AF  23155.02283112 -.00000031  00000-0  16135-4 0  9991,2 51743  53.2151 161.7007 0000813  65.2517 294.8560 15.08837524 72409,6917.888,95.438,540.315,539.191,0.0
51743.0,STARLINK-3512,PAYLOAD,2023-06-04 06:54:25,15.08838818,8.16e-05,53.215,160.5109,68.2819,291.826,2.0839e-05,4.4e-07,0.0,0 STARLINK-3512,1 51743U 22016AF  23155.28779030  .00000044  00000-0  20839-4 0  9997,2 51743  53.2150 160.5109 0000816  68.2819 291.8260 15.08838818 71319,6917.884,95.438,540.314,539.185,0.0
51743.0,STARLINK-3512,PAYLOAD,2023-06-05 05:09:48,15.08840559,8.45e-05,53.2149,156.3477,66.7693,293.3388,3.9358e-05,3.39e-06,0.0,0 STARLINK-3512,1 51743U 22016AF  23156.21514835  .00000339  00000-0  39358-4 0  9994,2 51743  53.2149 156.3477 0000845  66.7693 293.3388 15.08840559 72586,6917.879,95.438,540.328,539.159,0.0
51743.0,STARLINK-3512,PAYLOAD,2023-06-05 09:55:58,15.08840949,8.66e-05,53.215,155.456,64.3762,295.7319,4.3674e-05,4.07e-06,0.0,0 STARLINK-3512,1 51743U 22016AF  23156.41386787  .00000407  00000-0  43674-4 0  9991,2 51743  53.2150 155.4560 0000866  64.3762 295.7319 15.08840949 71486,6917.877,95.437,540.342,539.143,0.0
51743.0,STARLINK-3512,PAYLOAD,2023-06-06 00:14:26,15.0883599,8.99e-05,53.2152,152.7796,64.4077,295.7008,2.2985e-05,7.8e-07,0.0,0 STARLINK-3512,1 51743U 22016AF  23157.01003231  .00000078  00000-0  22985-4 0  9994,2 51743  53.2152 152.7796 0000899  64.4077 295.7008 15.08835990 72706,6917.893,95.438,540.38,539.136,0.0
51743.0,STARLINK-3512,PAYLOAD,2023-06-06 09:46:45,15.08836798,9.15e-05,53.215,150.9955,57.8327,302.2754,3.1684e-05,2.17e-06,0.0,0 STARLINK-3512,1 51743U 22016AF  23157.40747281  .00000217  00000-0  31684-4 0  9998,2 51743  53.2150 150.9955 0000915  57.8327 302.2754 15.08836798 71634,6917.89,95.438,540.388,539.122,0.0
51743.0,STARLINK-3512,PAYLOAD,2023-06-07 09:37:32,15.08838929,9.25e-05,53.2151,146.5349,63.7651,296.3436,1.993e-05,2.9e-07,0.0,0 STARLINK-3512,1 51743U 22016AF  23158.40107391  .00000029  00000-0  19930-4 0  9992,2 51743  53.2151 146.5349 0000925  63.7651 296.3436 15.08838929 72910,6917.884,95.438,540.389,539.109,0.0
51743.0,STARLINK-3512,PAYLOAD,2023-06-07 22:20:38,15.08835297,8.68e-05,53.2152,144.156,63.1997,296.9084,3.961e-05,3.43e-06,0.0,0 STARLINK-3512,1 51743U 22016AF  23158.93099648  .00000343  00000-0  39610-4 0  9991,2 51743  53.2152 144.1560 0000868  63.1997 296.9084 15.08835297 71866,6917.895,95.438,540.36,539.159,0.0
51743.0,STARLINK-3512,PAYLOAD,2023-06-08 07:52:56,15.08840447,9.68e-05,53.2152,142.3718,65.9622,294.1472,6.9314e-05,8.16e-06,0.0,0 STARLINK-3512,1 51743U 22016AF  23159.32843338  .00000816  00000-0  69314-4 0  9997,2 51743  53.2152 142.3718 0000968  65.9622 294.1472 15.08840447 71928,6917.879,95.438,540.414,539.074,0.0
51743.0,STARLINK-3512,PAYLOAD,2023-06-08 15:49:52,15.08837393,9.75e-05,53.2152,140.885,68.3703,291.7393,4.5421e-05,4.35e-06,0.0,0 STARLINK-3512,1 51743U 22016AF  23159.65963640  .00000435  00000-0  45421-4 0  9992,2 51743  53.2152 140.8850 0000975  68.3703 291.7393 15.08837393 73106,6917.888,95.438,540.428,539.079,0.0
51743.0,STARLINK-3512,PAYLOAD,2023-06-09 07:43:43,15.08841578,9.66e-05,53.2153,137.911,70.9491,289.1606,5.6962e-05,6.19e-06,0.0,0 STARLINK-3512,1 51743U 22016AF  23160.32203393  .00000619  00000-0  56962-4 0  9996,2 51743  53.2153 137.9110 0000966  70.9491 289.1606 15.08841578 72079,6917.876,95.437,540.409,539.072,0.0
51743.0,STARLINK-3512,PAYLOAD,2023-06-09 15:40:39,15.08838567,9.49e-05,53.2155,136.4243,74.925,285.1847,3.7844e-05,3.15e-06,0.0,0 STARLINK-3512,1 51743U 22016AF  23160.65323638  .00000315  00000-0  37844-4 0  9998,2 51743  53.2155 136.4243 0000949  74.9250 285.1847 15.08838567 72123,6917.885,95.438,540.406,539.093,0.0
51743.0,STARLINK-3512,PAYLOAD,2023-06-10 04:23:45,15.08836531,0.0001002,53.2155,134.0453,78.6615,281.4489,1.061e-05,-1.19e-06,0.0,0 STARLINK-3512,1 51743U 22016AF  23161.18316002 -.00000119  00000-0  10610-4 0  9999,2 51743  53.2155 134.0453 0001002  78.6615 281.4489 15.08836531 73331,6917.891,95.438,540.449,539.063,0.0
